NORAD_CAT_ID,OBJECT_NAME,OBJECT_TYPE,EPOCH,MEAN_MOTION,ECCENTRICITY,INCLINATION,RA_OF_ASC_NODE,ARG_OF_PERICENTER,MEAN_ANOMALY,BSTAR,MEAN_MOTION_DOT,MEAN_MOTION_DDOT,TLE_LINE0,TLE_LINE1,TLE_LINE2,SEMIMAJOR_AXIS,PERIOD,APOGEE,PERIGEE,DECAYED
50190.0,STARLINK-3268,PAYLOAD,2024-05-23 14:08:39,15.08836189,0.0001213,53.2182,299.9819,75.5391,284.5736,4.6502e-05,4.52e-06,0.0,0 STARLINK-3268,1 50190U 21125AL  24144.58934474  .00000452  00000-0  46502-4 0  9997,2 50190  53.2182 299.9819 0001213  75.5391 284.5736 15.08836189137838,6917.892,95.438,540.596,538.918,0.0
50190.0,STARLINK-3268,PAYLOAD,2024-05-23 20:30:11,15.08837464,0.0001213,53.2179,298.7914,82.2861,277.8269,5.9139e-05,6.53e-06,0.0,0 STARLINK-3268,1 50190U 21125AL  24144.85430455  .00000653  00000-0  59139-4 0  9990,2 50190  53.2179 298.7914 0001213  82.2861 277.8269 15.08837464137871,6917.888,95.438,540.592,538.914,0.0
50190.0,STARLINK-3268,PAYLOAD,2024-05-24 13:59:26,15.08847205,0.0001183,53.2168,295.5207,94.6303,265.4824,0.00022214,3.25e-05,0.0,0 STARLINK-3268,1 50190U 21125AL  24145.58294077  .00003250  00000-0  22214-3 0  9998,2 50190  53.2168 295.5207 0001183  94.6303 265.4824 15.08847205137989,6917.858,95.437,540.542,538.905,0.0
50190.0,STARLINK-3268,PAYLOAD,2024-05-24 20:20:58,15.0885266,0.0001188,53.2174,294.33,97.4541,262.6586,0.00026836,3.987e-05,0.0,0 STARLINK-3268,1 50190U 21125AL  24145.84789640  .00003987  00000-0  26836-3 0  9993,2 50190  53.2174 294.3300 0001188  97.4541 262.6586 15.08852660137544,6917.842,95.437,540.529,538.885,0.0
50190.0,STARLINK-3268,PAYLOAD,2024-05-25 13:50:13,15.08832613,0.0001177,53.2171,291.0596,106.8987,253.2134,-4.12e-06,-3.53e-06,0.0,0 STARLINK-3268,1 50190U 21125AL  24146.57654693 -.00000353  00000-0 -41200-5 0  9993,2 50190  53.2171 291.0596 0001177 106.8987 253.2134 15.08832613138136,6917.903,95.438,540.582,538.954,0.0
50190.0,STARLINK-3268,PAYLOAD,2024-05-25 20:11:46,15.08840023,0.0001318,53.2181,289.8701,97.9718,262.1424,0.00010497,1.383e-05,0.0,0 STARLINK-3268,1 50190U 21125AL  24146.84150473  .00001383  00000-0  10497-3 0  9994,2 50190  53.2181 289.8701 0001318  97.9718 262.1424 15.08840023137694,6917.88,95.438,540.657,538.834,0.0
50190.0,STARLINK-3268,PAYLOAD,2024-05-26 13:41:00,15.08843187,0.0001228,53.2159,286.6008,94.9953,265.1179,-6.5782e-06,-3.93e-06,0.0,0 STARLINK-3268,1 50190U 21125AL  24147.57014347 -.00000393  00000-0 -65782-5 0  9995,2 50190  53.2159 286.6008 0001228  94.9953 265.1179 15.08843187138282,6917.871,95.437,540.585,538.886,0.0
50190.0,STARLINK-3268,PAYLOAD,2024-05-26 16:51:46,15.08846608,9.85e-05,53.217,286.0059,82.239,277.8713,0.00011415,1.53e-05,0.0,0 STARLINK-3268,1 50190U 21125AL  24147.70262148  .00001530  00000-0  11415-3 0  9998,2 50190  53.2170 286.0059 0000985  82.2390 277.8713 15.08846608138307,6917.86,95.437,540.407,539.044,0.0
50190.0,STARLINK-3268,PAYLOAD,2024-05-27 13:31:47,15.0883772,0.000135,53.2172,282.1425,81.0975,279.017,4.7096e-05,4.62e-06,0.0,0 STARLINK-3268,1 50190U 21125AL  24148.56374978  .00000462  00000-0  47096-4 0  9996,2 50190  53.2172 282.1425 0001350  81.0975 279.0170 15.08837720137952,6917.887,95.438,540.686,538.818,0.0
50190.0,STARLINK-3268,PAYLOAD,2024-05-27 15:07:11,15.08839709,0.0001211,53.2175,281.8439,87.6698,272.4432,5.6726e-05,6.15e-06,0.0,0 STARLINK-3268,1 50190U 21125AL  24148.62999010  .00000615  00000-0  56726-4 0  9993,2 50190  53.2175 281.8439 0001211  87.6698 272.4432 15.08839709138448,6917.881,95.438,540.584,538.909,0.0
50190.0,STARLINK-3268,PAYLOAD,2024-05-27 18:17:57,15.08843915,0.0001265,53.2168,281.2499,74.7343,285.3789,8.3317e-05,1.038e-05,0.0,0 STARLINK-3268,1 50190U 21125AL  24148.76246748  .00001038  00000-0  83317-4 0  9997,2 50190  53.2168 281.2499 0001265  74.7343 285.3789 15.08843915138467,6917.868,95.437,540.609,538.858,0.0
50190.0,STARLINK-3268,PAYLOAD,2024-05-28 13:22:36,15.08779256,0.0001961,53.2178,277.6787,69.0309,291.0893,0.0011225,0.00017592,0.0,0 STARLINK-3268,1 50190U 21125AL  24149.55736677  .00017592  00000-0  11225-2 0  9999,2 50190  53.2178 277.6787 0001961  69.0309 291.0893 15.08779256138106,6918.066,95.441,541.288,538.574,0.0
50190.0,STARLINK-3268,PAYLOAD,2024-05-28 14:57:57,15.08847609,0.0001189,53.2179,277.3805,84.12,275.9927,7.0327e-05,8.32e-06,0.0,0 STARLINK-3268,1 50190U 21125AL  24149.62358348  .00000832  00000-0  70327-4 0  9991,2 50190  53.2179 277.3805 0001189  84.1200 275.9927 15.08847609138113,6917.857,95.437,540.545,538.9,0.0
50190.0,STARLINK-3268,PAYLOAD,2024-05-29 13:13:22,15.08838768,0.000118,53.2171,273.2192,75.0808,285.0315,-6.8601e-06,-3.97e-06,0.0,0 STARLINK-3268,1 50190U 21125AL  24150.55095086 -.00000397  00000-0 -68601-5 0  9993,2 50190  53.2171 273.2192 0001180  75.0808 285.0315 15.08838768138257,6917.884,95.438,540.565,538.933,0.0
50190.0,STARLINK-3268,PAYLOAD,2024-05-29 14:48:45,15.08839623,0.0001212,53.2173,272.9215,74.433,285.6796,-1.6767e-06,-3.15e-06,0.0,0 STARLINK-3268,1 50190U 21125AL  24150.61719000 -.00000315  00000-0 -16767-5 0  9995,2 50190  53.2173 272.9215 0001212  74.4330 285.6796 15.08839623138744,6917.882,95.438,540.585,538.908,0.0
50190.0,STARLINK-3268,PAYLOAD,2024-05-30 13:04:08,15.08846021,0.0001256,53.218,268.7601,91.0842,269.0294,0.00013015,1.784e-05,0.0,0 STARLINK-3268,1 50190U 21125AL  24151.54454208  .00001784  00000-0  13015-3 0  9994,2 50190  53.2180 268.7601 0001256  91.0842 269.0294 15.08846021138407,6917.862,95.437,540.596,538.858,0.0
50190.0,STARLINK-3268,PAYLOAD,2024-05-31 12:54:55,15.08839886,0.0001403,53.2188,264.3018,101.5182,258.5967,0.00011687,1.573e-05,0.0,0 STARLINK-3268,1 50190U 21125AL  24152.53814625  .00001573  00000-0  11687-3 0  9996,2 50190  53.2188 264.3018 0001403 101.5182 258.5967 15.08839886138554,6917.881,95.438,540.716,538.775,0.0
50190.0,STARLINK-3268,PAYLOAD,2024-06-01 12:45:43,15.0883547,0.000154,53.2194,259.8411,99.6491,260.4675,-7.6801e-05,-1.51e-05,0.0,0 STARLINK-3268,1 50190U 21125AL  24153.53175403 -.00001510  00000-0 -76801-4 0  9994,2 50190  53.2194 259.8411 0001540  99.6491 260.4675 15.08835470138709,6917.894,95.438,540.825,538.694,0.0
50190.0,STARLINK-3268,PAYLOAD,2024-06-01 14:21:06,15.0883664,0.0001302,53.2179,259.5438,94.6683,265.4458,-5.7803e-05,-1.208e-05,0.0,0 STARLINK-3268,1 50190U 21125AL  24153.59799270 -.00001208  00000-0 -57803-4 0  9999,2 50190  53.2179 259.5438 0001302  94.6683 265.4458 15.08836640139190,6917.891,95.438,540.656,538.855,0.0
50190.0,STARLINK-3268,PAYLOAD,2024-06-02 11:01:07,15.08833528,0.000126,53.2181,255.6779,73.6263,286.4867,-2.2121e-06,-3.23e-06,0.0,0 STARLINK-3268,1 50190U 21125AL  24154.45911726 -.00000323  00000-0 -22121-5 0  9990,2 50190  53.2181 255.6779 0001260  73.6263 286.4867 15.08833528139326,6917.9,95.438,540.637,538.894,0.0
50190.0,STARLINK-3268,PAYLOAD,2024-06-02 15:47:16,15.08855018,0.0001508,53.2182,254.7858,78.6981,281.418,-0.00020633,-3.572e-05,0.0,0 STARLINK-3268,1 50190U 21125AL  24154.65782839 -.00003572  00000-0 -20633-3 0  9996,2 50190  53.2182 254.7858 0001508  78.6981 281.4180 15.08855018138872,6917.834,95.437,540.743,538.656,0.0
50190.0,STARLINK-3268,PAYLOAD,2024-06-02 23:44:12,15.08841496,0.0001277,53.2177,253.298,84.7725,275.3413,3.6174e-05,2.88e-06,0.0,0 STARLINK-3268,1 50190U 21125AL  24154.98903199  .00000288  00000-0  36174-4 0  9993,2 50190  53.2177 253.2980 0001277  84.7725 275.3413 15.08841496138925,6917.876,95.437,540.624,538.857,0.0
50190.0,STARLINK-3268,PAYLOAD,2024-06-03 12:27:17,15.08846115,0.0001461,53.2177,250.9184,91.9245,268.1914,0.000211,3.072e-05,0.0,0 STARLINK-3268,1 50190U 21125AL  24155.51894722  .00003072  00000-0  21100-3 0  9990,2 50190  53.2177 250.9184 0001461  91.9245 268.1914 15.08846115139488,6917.862,95.437,540.737,538.716,0.0
50190.0,STARLINK-3268,PAYLOAD,2024-06-04 12:18:04,15.088418,0.0001352,53.2144,246.458,84.8258,275.2888,0.00014392,2.003e-05,0.0,0 STARLINK-3268,1 50190U 21125AL  24156.51255173  .00002003  00000-0  14392-3 0  9990,2 50190  53.2144 246.4580 0001352  84.8258 275.2888 15.08841800139155,6917.875,95.437,540.675,538.805,0.0
50190.0,STARLINK-3268,PAYLOAD,2024-06-04 15:28:50,15.08848982,0.000152,53.2127,245.8605,91.239,268.8776,0.0001711,2.437e-05,0.0,0 STARLINK-3268,1 50190U 21125AL  24156.64502758  .00002437  00000-0  17110-3 0  9990,2 50190  53.2127 245.8605 0001520  91.2390 268.8776 15.08848982139650,6917.853,95.437,540.769,538.666,0.0
50190.0,STARLINK-3268,PAYLOAD,2024-06-05 12:08:51,15.08842833,0.0001544,53.2163,241.9963,97.5973,262.5195,3.9588e-05,3.42e-06,0.0,0 STARLINK-3268,1 50190U 21125AL  24157.50614986  .00000342  00000-0  39588-4 0  9990,2 50190  53.2163 241.9963 0001544  97.5973 262.5195 15.08842833139785,6917.872,95.437,540.805,538.669,0.0
50190.0,STARLINK-3268,PAYLOAD,2024-06-05 15:19:37,15.0884499,0.0001595,53.2164,241.4009,99.4661,260.6511,7.8841e-05,9.67e-06,0.0,0 STARLINK-3268,1 50190U 21125AL  24157.63862867  .00000967  00000-0  78841-4 0  9995,2 50190  53.2164 241.4009 0001595  99.4661 260.6511 15.08844990139320,6917.865,95.437,540.834,538.627,0.0
50190.0,STARLINK-3268,PAYLOAD,2024-06-06 10:24:15,15.08834406,0.0001552,53.2164,237.8317,105.6517,254.4647,0.00011472,1.538e-05,0.0,0 STARLINK-3268,1 50190U 21125AL  24158.43351546  .00001538  00000-0  11472-3 0  9992,2 50190  53.2164 237.8317 0001552 105.6517 254.4647 15.08834406139449,6917.897,95.438,540.836,538.689,0.0
50190.0,STARLINK-3268,PAYLOAD,2024-06-07 08:39:39,15.08839508,0.0001607,53.2169,233.6704,107.1523,252.9646,0.00012398,1.686e-05,0.0,0 STARLINK-3268,1 50190U 21125AL  24159.36087320  .00001686  00000-0  12398-3 0  9993,2 50190  53.2169 233.6704 0001607 107.1523 252.9646 15.08839508140063,6917.882,95.438,540.859,538.635,0.0
50190.0,STARLINK-3268,PAYLOAD,2024-06-08 05:19:39,15.08852371,0.0001332,53.2154,229.8061,76.3659,283.7482,-4.7446e-05,-1.043e-05,0.0,0 STARLINK-3268,1 50190U 21125AL  24160.22198908 -.00001043  00000-0 -47446-4 0  9997,2 50190  53.2154 229.8061 0001332  76.3659 283.7482 15.08852371139715,6917.843,95.437,540.629,538.786,0.0
